G90
M82
G92 E0

G1 X6.0000 Y0.0000 Z0.2 F1200
G1 X5.9088 Y1.0419 E0.1000
G1 X5.6382 Y2.0521 E0.2000
G1 X5.1962 Y3.0000 E0.3000
G1 X4.5963 Y3.8567 E0.4000
G1 X3.8567 Y4.5963 E0.5000
G1 X3.0000 Y5.1962 E0.6000
G1 X2.0521 Y5.6382 E0.7000
G1 X1.0419 Y5.9088 E0.8000
G1 X0.0000 Y6.0000 E0.9000
G1 X-1.0419 Y5.9088 E1.0000
G1 X-2.0521 Y5.6382 E1.1000
G1 X-3.0000 Y5.1962 E1.2000
G1 X-3.8567 Y4.5963 E1.3000
G1 X-4.5963 Y3.8567 E1.4000
G1 X-5.1962 Y3.0000 E1.5000
G1 X-5.6382 Y2.0521 E1.6000
G1 X-5.9088 Y1.0419 E1.7000
G1 X-6.0000 Y0.0000 E1.8000
G1 X-5.9088 Y-1.0419 E1.9000
G1 X-5.6382 Y-2.0521 E2.0000
G1 X-5.1962 Y-3.0000 E2.1000
G1 X-4.5963 Y-3.8567 E2.2000
G1 X-3.8567 Y-4.5963 E2.3000
G1 X-3.0000 Y-5.1962 E2.4000
G1 X-2.0521 Y-5.6382 E2.5000
G1 X-1.0419 Y-5.9088 E2.6000
G1 X-0.0000 Y-6.0000 E2.7000
G1 X1.0419 Y-5.9088 E2.8000
G1 X2.0521 Y-5.6382 E2.9000
G1 X3.0000 Y-5.1962 E3.0000
G1 X3.8567 Y-4.5963 E3.1000
G1 X4.5963 Y-3.8567 E3.2000
G1 X5.1962 Y-3.0000 E3.3000
G1 X5.6382 Y-2.0521 E3.4000
G1 X5.9088 Y-1.0419 E3.5000
G1 X6.0000 Y-0.0000 E3.6000
